{
  "type": "FeatureCollection",
  "features": [
    {
      "type": "Feature",
      "properties": {
        "norad_id": 40069,
        "name": "METEOR-M 2",
        "group": "weather",
        "lat": 10.861206569935172,
        "lon": -31.82423635126714,
        "alt_km": 825.8149982686209,
        "timestamp": "2025-12-18T10:51:25.430730+00:00",
        "meta_object_name": "METEOR-M 2",
        "meta_object_id": "2014-037A",
        "meta_epoch": "2025-12-17T22:58:45.603264",
        "meta_mean_motion": 14.2138805,
        "meta_eccentricity": 0.00052058,
        "meta_inclination": 98.4898,
        "meta_ra_of_asc_node": 329.3421,
        "meta_arg_of_pericenter": 193.2928,
        "meta_mean_anomaly": 166.8114,
        "meta_ephemeris_type": 0,
        "meta_classification_type": "U",
        "meta_norad_cat_id": 40069,
        "meta_element_set_no": 999,
        "meta_rev_at_epoch": 59357,
        "meta_bstar": -9.308128e-06,
        "meta_mean_motion_dot": -6.2e-07,
        "meta_mean_motion_ddot": 0,
        "tle_line1": "1 40069U 14037A   25351.95747226 -.00000062  00000+0 -93081-5 0  9997",
        "tle_line2": "2 40069  98.4898 329.3421 0005205 193.2928 166.8114 14.21388050593575"
      },
      "geometry": {
        "type": "Point",
        "coordinates": [
          -31.82423635126714,
          10.861206569935172
        ]
      }
    },
    {
      "type": "Feature",
      "properties": {
        "norad_id": 40267,
        "name": "HIMAWARI-8",
        "group": "weather",
        "lat": 0.007170086023145787,
        "lon": 30.838911618717134,
        "alt_km": 35786.6305154001,
        "timestamp": "2025-12-18T10:51:25.430742+00:00",
        "meta_object_name": "HIMAWARI-8",
        "meta_object_id": "2014-060A",
        "meta_epoch": "2025-12-17T20:50:37.363200",
        "meta_mean_motion": 1.00272135,
        "meta_eccentricity": 8.55e-05,
        "meta_inclination": 0.0056,
        "meta_ra_of_asc_node": 43.9227,
        "meta_arg_of_pericenter": 247.8636,
        "meta_mean_anomaly": 248.2782,
        "meta_ephemeris_type": 0,
        "meta_classification_type": "U",
        "meta_norad_cat_id": 40267,
        "meta_element_set_no": 999,
        "meta_rev_at_epoch": 4094,
        "meta_bstar": 0,
        "meta_mean_motion_dot": -2.5e-06,
        "meta_mean_motion_ddot": 0,
        "tle_line1": "1 40267U 14060A   25351.86848800 -.00000250  00000+0  00000+0 0  9994",
        "tle_line2": "2 40267   0.0056  43.9227 0000855 247.8636 248.2782  1.00272135 40944"
      },
      "geometry": {
        "type": "Point",
        "coordinates": [
          30.838911618717134,
          0.007170086023145787
        ]
      }
    },
    {
      "type": "Feature",
      "properties": {
        "norad_id": 40367,
        "name": "FENGYUN 2G",
        "group": "weather",
        "lat": -5.169862349471106,
        "lon": -10.43211915885653,
        "alt_km": 35785.2929912154,
        "timestamp": "2025-12-18T10:51:25.430755+00:00",
        "meta_object_name": "FENGYUN 2G",
        "meta_object_id": "2014-090A",
        "meta_epoch": "2025-12-17T18:56:05.319744",
        "meta_mean_motion": 1.00262461,
        "meta_eccentricity": 0.00028119,
        "meta_inclination": 5.1808,
        "meta_ra_of_asc_node": 75.0403,
        "meta_arg_of_pericenter": 205.1147,
        "meta_mean_anomaly": 189.902,
        "meta_ephemeris_type": 0,
        "meta_classification_type": "U",
        "meta_norad_cat_id": 40367,
        "meta_element_set_no": 999,
        "meta_rev_at_epoch": 4018,
        "meta_bstar": 0,
        "meta_mean_motion_dot": -2.79e-06,
        "meta_mean_motion_ddot": 0,
        "tle_line1": "1 40367U 14090A   25351.78895046 -.00000279  00000+0  00000+0 0  9994",
        "tle_line2": "2 40367   5.1808  75.0403 0002811 205.1147 189.9020  1.00262461 40189"
      },
      "geometry": {
        "type": "Point",
        "coordinates": [
          -10.43211915885653,
          -5.169862349471106
        ]
      }
    },
    {
      "type": "Feature",
      "properties": {
        "norad_id": 40732,
        "name": "METEOSAT-11 (MSG-4)",
        "group": "weather",
        "lat": -0.38102473120714314,
        "lon": -100.61897827320398,
        "alt_km": 35784.61930570865,
        "timestamp": "2025-12-18T10:51:25.430767+00:00",
        "meta_object_name": "METEOSAT-11 (MSG-4)",
        "meta_object_id": "2015-034A",
        "meta_epoch": "2025-12-17T18:30:22.781664",
        "meta_mean_motion": 1.00269064,
        "meta_eccentricity": 8.817e-05,
        "meta_inclination": 2.7485,
        "meta_ra_of_asc_node": 71.9887,
        "meta_arg_of_pericenter": 133.9438,
        "meta_mean_anomaly": 167.5299,
        "meta_ephemeris_type": 0,
        "meta_classification_type": "U",
        "meta_norad_cat_id": 40732,
        "meta_element_set_no": 999,
        "meta_rev_at_epoch": 539,
        "meta_bstar": 0,
        "meta_mean_motion_dot": 8.4e-07,
        "meta_mean_motion_ddot": 0,
        "tle_line1": "1 40732U 15034A   25351.77109701  .00000084  00000+0  00000+0 0  9997",
        "tle_line2": "2 40732   2.7485  71.9887 0000881 133.9438 167.5299  1.00269064  5396"
      },
      "geometry": {
        "type": "Point",
        "coordinates": [
          -100.61897827320398,
          -0.38102473120714314
        ]
      }
    },
    {
      "type": "Feature",
      "properties": {
        "norad_id": 41105,
        "name": "ELEKTRO-L 2",
        "group": "weather",
        "lat": 1.8104205035270848,
        "lon": -124.24943784874617,
        "alt_km": 35774.854870618976,
        "timestamp": "2025-12-18T10:51:25.430780+00:00",
        "meta_object_name": "ELEKTRO-L 2",
        "meta_object_id": "2015-074A",
        "meta_epoch": "2025-12-17T02:58:11.708832",
        "meta_mean_motion": 1.00272669,
        "meta_eccentricity": 0.00036686,
        "meta_inclination": 6.2364,
        "meta_ra_of_asc_node": 72.7769,
        "meta_arg_of_pericenter": 209.1186,
        "meta_mean_anomaly": 194.171,
        "meta_ephemeris_type": 0,
        "meta_classification_type": "U",
        "meta_norad_cat_id": 41105,
        "meta_element_set_no": 999,
        "meta_rev_at_epoch": 3668,
        "meta_bstar": 0,
        "meta_mean_motion_dot": -9.8e-07,
        "meta_mean_motion_ddot": 0,
        "tle_line1": "1 41105U 15074A   25351.12374663 -.00000098  00000+0  00000+0 0  9992",
        "tle_line2": "2 41105   6.2364  72.7769 0003668 209.1186 194.1710  1.00272669 36681"
      },
      "geometry": {
        "type": "Point",
        "coordinates": [
          -124.24943784874617,
          1.8104205035270848
        ]
      }
    },
    {
      "type": "Feature",
      "properties": {
        "norad_id": 41752,
        "name": "INSAT-3DR",
        "group": "weather",
        "lat": -0.09693480866559759,
        "lon": -35.72156495548869,
        "alt_km": 35749.99028966519,
        "timestamp": "2025-12-18T10:51:25.430792+00:00",
        "meta_object_name": "INSAT-3DR",
        "meta_object_id": "2016-054A",
        "meta_epoch": "2025-12-17T19:54:35.915904",
        "meta_mean_motion": 1.00271606,
        "meta_eccentricity": 0.00141508,
        "meta_inclination": 0.1046,
        "meta_ra_of_asc_node": 86.6056,
        "meta_arg_of_pericenter": 184.762,
        "meta_mean_anomaly": 187.9724,
        "meta_ephemeris_type": 0,
        "meta_classification_type": "U",
        "meta_norad_cat_id": 41752,
        "meta_element_set_no": 999,
        "meta_rev_at_epoch": 3400,
        "meta_bstar": 0,
        "meta_mean_motion_dot": -5.2e-07,
        "meta_mean_motion_ddot": 0,
        "tle_line1": "1 41752U 16054A   25351.82958236 -.00000052  00000+0  00000+0 0  9990",
        "tle_line2": "2 41752   0.1046  86.6056 0014150 184.7620 187.9724  1.00271606 34000"
      },
      "geometry": {
        "type": "Point",
        "coordinates": [
          -35.72156495548869,
          -0.09693480866559759
        ]
      }
    },
    {
      "type": "Feature",
      "properties": {
        "norad_id": 41836,
        "name": "HIMAWARI-9",
        "group": "weather",
        "lat": 0.038122187628651674,
        "lon": 30.92822248347286,
        "alt_km": 35782.369856177706,
        "timestamp": "2025-12-18T10:51:25.430805+00:00",
        "meta_object_name": "HIMAWARI-9",
        "meta_object_id": "2016-064A",
        "meta_epoch": "2025-12-17T20:50:37.363200",
        "meta_mean_motion": 1.00271116,
        "meta_eccentricity": 0.00019052,
        "meta_inclination": 0.0216,
        "meta_ra_of_asc_node": 332.3604,
        "meta_arg_of_pericenter": 358.4008,
        "meta_mean_anomaly": 209.3857,
        "meta_ephemeris_type": 0,
        "meta_classification_type": "U",
        "meta_norad_cat_id": 41836,
        "meta_element_set_no": 999,
        "meta_rev_at_epoch": 3339,
        "meta_bstar": 0,
        "meta_mean_motion_dot": 0,
        "meta_mean_motion_ddot": 0,
        "tle_line1": "1 41836U 16064A   25351.86848800  .00000000  00000+0  00000+0 0  9995",
        "tle_line2": "2 41836   0.0216 332.3604 0001905 358.4008 209.3857  1.00271116 33398"
      },
      "geometry": {
        "type": "Point",
        "coordinates": [
          30.92822248347286,
          0.038122187628651674
        ]
      }
    }
  ]
}